start=new Date('2023-02-12T00:00:00.000Z').valueOf();
sats=[{"CLASSIFICATION_TYPE":"U","TLE_LINE1":"1 51144U 22005AS  23042.73115545  .00023462  00000-0  14874-2 0  9999","NORAD_CAT_ID":"51144","SEMIMAJOR_AXIS":"6917.887","ECCENTRICITY":"0.00008190","MEAN_ANOMALY":"284.4532","EPHEMERIS_TYPE":"0","RCS_SIZE":"LARGE","CENTER_NAME":"EARTH","ELEMENT_SET_NO":"999","REF_FRAME":"TEME","REV_AT_EPOCH":"5936","BSTAR":"0.00148740000000","INCLINATION":"53.2136","FILE":"3786577","OBJECT_TYPE":"PAYLOAD","ARG_OF_PERICENTER":"75.6551","RA_OF_ASC_NODE":"295.7964","APOAPSIS":"540.319","TLE_LINE2":"2 51144  53.2136 295.7964 0000819  75.6551 284.4532 15.08837749 59369","COUNTRY_CODE":"US","OBJECT_ID":"2022-005AS","LAUNCH_DATE":"2022-01-19","MEAN_MOTION_DOT":"0.00023462","MEAN_MOTION_DDOT":"0.0000000000000","TIME_SYSTEM":"UTC","GP_ID":"225185413","DECAY_DATE":null,"SITE":"AFETR","PERIAPSIS":"539.186","MEAN_MOTION":"15.08837749","MEAN_ELEMENT_THEORY":"SGP4","OBJECT_NAME":"STARLINK-3185","PERIOD":"95.438","EPOCH":"2023-02-11T17:32:51.830880"},{"ECCENTRICITY":"0.00015320","SEMIMAJOR_AXIS":"6917.854","TLE_LINE1":"1 51145U 22005AT  23042.77439384  .00045442  00000-0  28543-2 0  9994","NORAD_CAT_ID":"51145","CLASSIFICATION_TYPE":"U","CENTER_NAME":"EARTH","ELEMENT_SET_NO":"999","EPHEMERIS_TYPE":"0","RCS_SIZE":"LARGE","MEAN_ANOMALY":"271.3677","REF_FRAME":"TEME","REV_AT_EPOCH":"5922","OBJECT_TYPE":"PAYLOAD","FILE":"3786577","INCLINATION":"53.2158","BSTAR":"0.00285430000000","MEAN_MOTION_DDOT":"0.0000000000000","TIME_SYSTEM":"UTC","LAUNCH_DATE":"2022-01-19","MEAN_MOTION_DOT":"0.00045442","TLE_LINE2":"2 51145  53.2158 305.5963 0001532  88.7490 271.3677 15.08848648 59223","APOAPSIS":"540.779","OBJECT_ID":"2022-005AT","COUNTRY_CODE":"US","RA_OF_ASC_NODE":"305.5963","ARG_OF_PERICENTER":"88.7490","PERIAPSIS":"538.659","SITE":"AFETR","GP_ID":"225184663","DECAY_DATE":null,"OBJECT_NAME":"STARLINK-3365","PERIOD":"95.437","MEAN_ELEMENT_THEORY":"SGP4","MEAN_MOTION":"15.08848648","EPOCH":"2023-02-11T18:35:07.627776"},{"ELEMENT_SET_NO":"999","CENTER_NAME":"EARTH","MEAN_ANOMALY":"249.6638","RCS_SIZE":"LARGE","EPHEMERIS_TYPE":"0","SEMIMAJOR_AXIS":"6917.891","ECCENTRICITY":"0.00010510","TLE_LINE1":"1 51146U 22005AU  23042.87099318 -.00000305  00000-0 -10618-5 0  9993","CLASSIFICATION_TYPE":"U","NORAD_CAT_ID":"51146","FILE":"3786577","OBJECT_TYPE":"PAYLOAD","BSTAR":"-0.00000106180000","INCLINATION":"53.2146","REV_AT_EPOCH":"5937","REF_FRAME":"TEME","PERIAPSIS":"539.029","GP_ID":"225184913","DECAY_DATE":null,"SITE":"AFETR","LAUNCH_DATE":"2022-01-19","MEAN_MOTION_DOT":"-0.00000305","MEAN_MOTION_DDOT":"0.0000000000000","TIME_SYSTEM":"UTC","ARG_OF_PERICENTER":"110.4467","RA_OF_ASC_NODE":"295.1664","COUNTRY_CODE":"US","OBJECT_ID":"2022-005AU","TLE_LINE2":"2 51146  53.2146 295.1664 0001051 110.4467 249.6638 15.08836620 59374","APOAPSIS":"540.483","EPOCH":"2023-02-11T20:54:13.810752","PERIOD":"95.438","OBJECT_NAME":"STARLINK-3354","MEAN_MOTION":"15.08836620","MEAN_ELEMENT_THEORY":"SGP4"},{"PERIAPSIS":"538.419","DECAY_DATE":null,"GP_ID":"225122556","SITE":"AFETR","LAUNCH_DATE":"2022-01-19","MEAN_MOTION_DOT":"0.00011086","MEAN_MOTION_DDOT":"0.0000000000000","TIME_SYSTEM":"UTC","RA_OF_ASC_NODE":"308.8393","ARG_OF_PERICENTER":"111.6442","OBJECT_ID":"2022-005AV","COUNTRY_CODE":"US","APOAPSIS":"540.970","TLE_LINE2":"2 51147  53.2156 308.8393 0001844 111.6442 248.4746 15.08856675 59114","EPOCH":"2023-02-11T01:16:28.551072","PERIOD":"95.436","OBJECT_NAME":"STARLINK-3352","MEAN_MOTION":"15.08856675","MEAN_ELEMENT_THEORY":"SGP4","ELEMENT_SET_NO":"999","CENTER_NAME":"EARTH","MEAN_ANOMALY":"248.4746","RCS_SIZE":"LARGE","EPHEMERIS_TYPE":"0","SEMIMAJOR_AXIS":"6917.829","ECCENTRICITY":"0.00018440","NORAD_CAT_ID":"51147","TLE_LINE1":"1 51147U 22005AV  23042.05310823  .00011086  00000-0  71320-3 0  9992","CLASSIFICATION_TYPE":"U","FILE":"3786144","OBJECT_TYPE":"PAYLOAD","BSTAR":"0.00071320000000","INCLINATION":"53.2156","REV_AT_EPOCH":"5911","REF_FRAME":"TEME"},{"OBJECT_ID":"2022-005AW","COUNTRY_CODE":"US","TLE_LINE2":"2 51148  53.2149 305.6185 0001110 122.0961 238.0139 15.08846088 59229","APOAPSIS":"540.495","RA_OF_ASC_NODE":"305.6185","ARG_OF_PERICENTER":"122.0961","TIME_SYSTEM":"UTC","MEAN_MOTION_DDOT":"0.0000000000000","MEAN_MOTION_DOT":"0.00001615","LAUNCH_DATE":"2022-01-19","SITE":"AFETR","GP_ID":"225185914","DECAY_DATE":null,"PERIAPSIS":"538.959","MEAN_ELEMENT_THEORY":"SGP4","MEAN_MOTION":"15.08846088","PERIOD":"95.437","OBJECT_NAME":"STARLINK-3359","EPOCH":"2023-02-11T18:31:12.560160","CLASSIFICATION_TYPE":"U","TLE_LINE1":"1 51148U 22005AW  23042.77167315  .00001615  00000-0  11949-3 0  9996","NORAD_CAT_ID":"51148","ECCENTRICITY":"0.00011100","SEMIMAJOR_AXIS":"6917.862","RCS_SIZE":"LARGE","EPHEMERIS_TYPE":"0","MEAN_ANOMALY":"238.0139","ELEMENT_SET_NO":"999","CENTER_NAME":"EARTH","REV_AT_EPOCH":"5922","REF_FRAME":"TEME","INCLINATION":"53.2149","BSTAR":"0.00011949000000","OBJECT_TYPE":"PAYLOAD","FILE":"3786577"},{"TLE_LINE1":"1 51149U 22005AX  23042.76703496  .00040566  00000-0  25523-2 0  9992","CLASSIFICATION_TYPE":"U","NORAD_CAT_ID":"51149","SEMIMAJOR_AXIS":"6917.881","ECCENTRICITY":"0.00015520","MEAN_ANOMALY":"271.6430","EPHEMERIS_TYPE":"0","RCS_SIZE":"LARGE","CENTER_NAME":"EARTH","ELEMENT_SET_NO":"999","REF_FRAME":"TEME","REV_AT_EPOCH":"5922","BSTAR":"0.00255230000000","INCLINATION":"53.2176","FILE":"3786577","OBJECT_TYPE":"PAYLOAD","ARG_OF_PERICENTER":"88.4740","RA_OF_ASC_NODE":"305.6247","APOAPSIS":"540.819","TLE_LINE2":"2 51149  53.2176 305.6247 0001552  88.4740 271.6430 15.08839914 59226","COUNTRY_CODE":"US","OBJECT_ID":"2022-005AX","MEAN_MOTION_DOT":"0.00040566","LAUNCH_DATE":"2022-01-19","MEAN_MOTION_DDOT":"0.0000000000000","TIME_SYSTEM":"UTC","DECAY_DATE":null,"GP_ID":"225184163","SITE":"AFETR","PERIAPSIS":"538.672","MEAN_MOTION":"15.08839914","MEAN_ELEMENT_THEORY":"SGP4","OBJECT_NAME":"STARLINK-3360","PERIOD":"95.438","EPOCH":"2023-02-11T18:24:31.820544"},{"REV_AT_EPOCH":"5925","REF_FRAME":"TEME","BSTAR":"0.00169560000000","INCLINATION":"53.2143","FILE":"3786144","OBJECT_TYPE":"PAYLOAD","TLE_LINE1":"1 51150U 22005AY  23041.99515104  .00026817  00000-0  16956-2 0  9998","NORAD_CAT_ID":"51150","CLASSIFICATION_TYPE":"U","SEMIMAJOR_AXIS":"6917.814","ECCENTRICITY":"0.00015810","MEAN_ANOMALY":"276.4769","RCS_SIZE":"LARGE","EPHEMERIS_TYPE":"0","ELEMENT_SET_NO":"999","CENTER_NAME":"EARTH","MEAN_MOTION":"15.08861569","MEAN_ELEMENT_THEORY":"SGP4","PERIOD":"95.436","OBJECT_NAME":"STARLINK-3357","EPOCH":"2023-02-10T23:53:01.049856","RA_OF_ASC_NODE":"299.0999","ARG_OF_PERICENTER":"83.6403","OBJECT_ID":"2022-005AY","COUNTRY_CODE":"US","TLE_LINE2":"2 51150  53.2143 299.0999 0001581  83.6403 276.4769 15.08861569 59259","APOAPSIS":"540.773","MEAN_MOTION_DOT":"0.00026817","LAUNCH_DATE":"2022-01-19","MEAN_MOTION_DDOT":"0.0000000000000","TIME_SYSTEM":"UTC","GP_ID":"225121806","DECAY_DATE":null,"SITE":"AFETR","PERIAPSIS":"538.586"},{"EPOCH":"2023-02-11T18:13:56.892000","OBJECT_NAME":"STARLINK-3361","PERIOD":"95.437","MEAN_MOTION":"15.08851163","MEAN_ELEMENT_THEORY":"SGP4","PERIAPSIS":"539.215","DECAY_DATE":null,"GP_ID":"225185664","SITE":"AFETR","LAUNCH_DATE":"2022-01-19","MEAN_MOTION_DOT":"0.00023578","MEAN_MOTION_DDOT":"0.0000000000000","TIME_SYSTEM":"UTC","ARG_OF_PERICENTER":"52.9982","RA_OF_ASC_NODE":"305.6565","APOAPSIS":"540.207","TLE_LINE2":"2 51151  53.2166 305.6565 0000717  52.9982 307.1075 15.08851163 59227","OBJECT_ID":"2022-005AZ","COUNTRY_CODE":"US","FILE":"3786577","OBJECT_TYPE":"PAYLOAD","BSTAR":"0.00149410000000","INCLINATION":"53.2166","REF_FRAME":"TEME","REV_AT_EPOCH":"5922","CENTER_NAME":"EARTH","ELEMENT_SET_NO":"999","MEAN_ANOMALY":"307.1075","EPHEMERIS_TYPE":"0","RCS_SIZE":"LARGE","SEMIMAJOR_AXIS":"6917.846","ECCENTRICITY":"0.00007170","NORAD_CAT_ID":"51151","TLE_LINE1":"1 51151U 22005AZ  23042.75968625  .00023578  00000-0  14941-2 0  9997","CLASSIFICATION_TYPE":"U"},{"LAUNCH_DATE":"2022-01-19","MEAN_MOTION_DOT":"0.00010091","MEAN_MOTION_DDOT":"0.0000000000000","TIME_SYSTEM":"UTC","RA_OF_ASC_NODE":"305.6474","ARG_OF_PERICENTER":"85.2854","COUNTRY_CODE":"US","OBJECT_ID":"2022-005BA","TLE_LINE2":"2 51152  53.2174 305.6474 0001118  85.2854 274.8266 15.08842765 59229","APOAPSIS":"540.510","PERIAPSIS":"538.964","GP_ID":"225185414","DECAY_DATE":null,"SITE":"AFETR","PERIOD":"95.437","OBJECT_NAME":"STARLINK-3364","MEAN_MOTION":"15.08842765","MEAN_ELEMENT_THEORY":"SGP4","EPOCH":"2023-02-11T18:19:13.389888","SEMIMAJOR_AXIS":"6917.872","ECCENTRICITY":"0.00011180","NORAD_CAT_ID":"51152","TLE_LINE1":"1 51152U 22005BA  23042.76334942  .00010091  00000-0  65117-3 0  9996","CLASSIFICATION_TYPE":"U","ELEMENT_SET_NO":"999","CENTER_NAME":"EARTH","MEAN_ANOMALY":"274.8266","RCS_SIZE":"LARGE","EPHEMERIS_TYPE":"0","REV_AT_EPOCH":"5922","REF_FRAME":"TEME","FILE":"3786577","OBJECT_TYPE":"PAYLOAD","BSTAR":"0.00065117000000","INCLINATION":"53.2174"},{"PERIAPSIS":"538.680","SITE":"AFETR","DECAY_DATE":null,"GP_ID":"225185169","TIME_SYSTEM":"UTC","MEAN_MOTION_DDOT":"0.0000000000000","MEAN_MOTION_DOT":"0.00026190","LAUNCH_DATE":"2022-02-03","COUNTRY_CODE":"US","OBJECT_ID":"2022-010E","APOAPSIS":"540.690","TLE_LINE2":"2 51460  53.2141 274.9926 0001453  86.8152 273.3006 15.08859845 57473","RA_OF_ASC_NODE":"274.9926","ARG_OF_PERICENTER":"86.8152","EPOCH":"2023-02-11T21:49:52.821696","PERIOD":"95.436","OBJECT_NAME":"STARLINK-3167","MEAN_ELEMENT_THEORY":"SGP4","MEAN_MOTION":"15.08859845","ELEMENT_SET_NO":"999","CENTER_NAME":"EARTH","RCS_SIZE":"LARGE","EPHEMERIS_TYPE":"0","MEAN_ANOMALY":"273.3006","ECCENTRICITY":"0.00014530","SEMIMAJOR_AXIS":"6917.820","CLASSIFICATION_TYPE":"U","TLE_LINE1":"1 51460U 22010E   23042.90963914  .00026190  00000-0  16566-2 0  9997","NORAD_CAT_ID":"51460","OBJECT_TYPE":"PAYLOAD","FILE":"3786577","INCLINATION":"53.2141","BSTAR":"0.00165660000000","REV_AT_EPOCH":"5747","REF_FRAME":"TEME"}];
